     3.02           N: GNSS NAV DATA    R: GLONASS          RINEX VERSION / TYPE
ssrcrin-10.1.1x                         20160105 000000 LCL PGM / RUN BY / DATE 
                                                            END OF HEADER       
R08 2016 01 05 18 45 00-2.703908830881E-05 0.000000000000E+00 2.400000000000E+05
    -1.612880810547E+04 2.492275238037E+00-0.000000000000E+00 0.000000000000E+00
    -7.632054199219E+03-7.438945770264E-02-0.000000000000E+00 6.000000000000E+00
     1.826501367188E+04 2.175945281982E+00-2.793967723846E-09 0.000000000000E+00
R02 2016 01 05 19 15 00 1.700399443507E-04 1.818989403546E-12 2.412000000000E+05
    -2.238952099609E+04-1.122792243958E+00-9.313225746155E-10 0.000000000000E+00
     8.730933105469E+03 3.895626068115E-01-2.793967723846E-09-4.000000000000E+00
    -8.577574218750E+03 3.312968254089E+00-0.000000000000E+00 0.000000000000E+00
R13 2016 01 05 19 15 00 1.175422221422E-05-0.000000000000E+00 2.412000000000E+05
    -1.249077832031E+04 7.554845809937E-01-0.000000000000E+00 0.000000000000E+00
     1.751299316406E+04-1.727853775024E+00-1.862645149231E-09-2.000000000000E+00
    -1.372151806641E+04-2.895423889160E+00 9.313225746155E-10 0.000000000000E+00
R12 2016 01 05 19 15 00 3.150384873152E-05 9.094947017729E-13 2.412000000000E+05
    -1.119114355469E+04 1.022997856140E+00-2.793967723846E-09 0.000000000000E+00
    -4.006435546875E+02-2.964603424072E+00-1.862645149231E-09-1.000000000000E+00
    -2.292815087891E+04-4.622192382812E-01 9.313225746155E-10 0.000000000000E+00
R03 2016 01 05 19 15 00 5.919858813286E-05 0.000000000000E+00 2.412000000000E+05
    -7.719653808594E+03-2.836431503296E+00-9.313225746155E-10 0.000000000000E+00
     1.189263427734E+04 6.384716033936E-01-1.862645149231E-09 5.000000000000E+00
    -2.118202783203E+04 1.387602806091E+00 1.862645149231E-09 0.000000000000E+00
R01 2016 01 05 19 15 00-1.470670104027E-04 0.000000000000E+00 2.412000000000E+05
    -2.359084472656E+04 1.322468757629E+00-9.313225746155E-10 0.000000000000E+00
     1.867333984375E+02-1.529273986816E-01-9.313225746155E-10 1.000000000000E+00
     9.672911132812E+03 3.227673530579E+00-2.793967723846E-09 0.000000000000E+00
R14 2016 01 05 19 15 00 2.649072557688E-04 3.637978807092E-12 2.412000000000E+05
    -6.469609375000E+03 3.095531463623E-02 1.862645149231E-09 0.000000000000E+00
     2.430128320312E+04 5.999345779419E-01-0.000000000000E+00-7.000000000000E+00
     4.038863769531E+03-3.553331375122E+00 9.313225746155E-10 0.000000000000E+00
R02 2016 01 05 19 45 00 1.700427383184E-04 1.818989403546E-12 2.430000000000E+05
    -2.362975195312E+04-2.538604736328E-01-1.862645149231E-09 0.000000000000E+00
     9.358330078125E+03 2.659454345703E-01-1.862645149231E-09-4.000000000000E+00
    -2.359961425781E+03 3.550654411316E+00-9.313225746155E-10 0.000000000000E+00
R13 2016 01 05 19 45 00 1.175422221422E-05-0.000000000000E+00 2.430000000000E+05
    -1.123388867188E+04 6.027154922485E-01-9.313225746155E-10 0.000000000000E+00
     1.373679003906E+04-2.439980506897E+00-1.862645149231E-09-2.000000000000E+00
    -1.833600341797E+04-2.198560714722E+00 9.313225746155E-10 0.000000000000E+00
R03 2016 01 05 19 45 00 5.919951945543E-05 0.000000000000E+00 2.430000000000E+05
    -1.236681250000E+04-2.289798736572E+00-9.313225746155E-10 0.000000000000E+00
     1.329935693359E+04 8.927068710327E-01-1.862645149231E-09 5.000000000000E+00
    -1.789632568359E+04 2.239320755005E+00 9.313225746155E-10 0.000000000000E+00
R14 2016 01 05 19 45 00 2.649147063494E-04 3.637978807092E-12 2.430000000000E+05
    -6.144770996094E+03 2.895183563232E-01 9.313225746155E-10 0.000000000000E+00
     2.460129785156E+04-2.795619964600E-01-9.313225746155E-10-7.000000000000E+00
    -2.430972167969E+03-3.588482856750E+00 9.313225746155E-10 0.000000000000E+00
R12 2016 01 05 19 45 00 3.150664269924E-05 9.094947017729E-13 2.430000000000E+05
    -9.743085449219E+03 5.729656219482E-01-2.793967723846E-09 0.000000000000E+00
    -5.878107421875E+03-3.071089744568E+00-1.862645149231E-09-1.000000000000E+00
    -2.286494091797E+04 5.315475463867E-01 9.313225746155E-10 0.000000000000E+00
R01 2016 01 05 19 45 00-1.470660790801E-04 0.000000000000E+00 2.430000000000E+05
    -2.058939746094E+04 1.976447105408E+00-9.313225746155E-10 0.000000000000E+00
    -4.578090820312E+02-5.883064270020E-01-9.313225746155E-10 1.000000000000E+00
     1.503312060547E+04 2.689399719238E+00-2.793967723846E-09 0.000000000000E+00
R23 2016 01 05 19 45 00-6.706360727549E-05-3.637978807092E-12 2.434800000000E+05
    -2.037141943359E+04-1.002579689026E+00-2.793967723846E-09 0.000000000000E+00
    -1.273520068359E+04-6.387472152710E-01-9.313225746155E-10 3.000000000000E+00
     8.563314941406E+03-3.333593368530E+00-2.793967723846E-09 0.000000000000E+00
R04 2016 01 05 19 45 00 1.520384103060E-04 9.094947017729E-13 2.444400000000E+05
     6.474192382812E+03-2.963909149170E+00-0.000000000000E+00 0.000000000000E+00
     9.298434570312E+03 1.005607604980E+00-9.313225746155E-10 6.000000000000E+00
    -2.284565576172E+04-4.313411712646E-01 2.793967723846E-09 0.000000000000E+00
R03 2016 01 05 20 15 00 5.920138210058E-05 0.000000000000E+00 2.448000000000E+05
    -1.585652978516E+04-1.566675186157E+00-1.862645149231E-09 0.000000000000E+00
     1.497278027344E+04 9.255857467651E-01-1.862645149231E-09 5.000000000000E+00
    -1.322514062500E+04 2.917056083679E+00 0.000000000000E+00 0.000000000000E+00
R02 2016 01 05 20 15 00 1.700464636087E-04 1.818989403546E-12 2.448000000000E+05
    -2.333342578125E+04 5.654144287109E-01-1.862645149231E-09 0.000000000000E+00
     9.544278808594E+03-9.628105163574E-02-1.862645149231E-09-4.000000000000E+00
     4.039867675781E+03 3.514198303223E+00-1.862645149231E-09 0.000000000000E+00
R13 2016 01 05 20 15 00 1.175329089165E-05-0.000000000000E+00 2.448000000000E+05
    -1.043954296875E+04 2.535552978516E-01-2.793967723846E-09 0.000000000000E+00
     8.858196777344E+03-2.937952995300E+00-1.862645149231E-09-2.000000000000E+00
    -2.153433447266E+04-1.332130432129E+00 9.313225746155E-10 0.000000000000E+00
R14 2016 01 05 20 15 00 2.649221569300E-04 3.637978807092E-12 2.448000000000E+05
    -5.579681152344E+03 2.957706451416E-01 0.000000000000E+00 0.000000000000E+00
     2.328438330078E+04-1.176378250122E+00-1.862645149231E-09-7.000000000000E+00
    -8.712101074219E+03-3.345083236694E+00 9.313225746155E-10 0.000000000000E+00
R12 2016 01 05 20 15 00 3.150943666697E-05 1.818989403546E-12 2.448000000000E+05
    -9.142476562500E+03 9.964370727539E-02-3.725290298462E-09 0.000000000000E+00
    -1.127171533203E+04-2.871063232422E+00-0.000000000000E+00-1.000000000000E+00
    -2.104070410156E+04 1.481911659241E+00 0.000000000000E+00 0.000000000000E+00
R04 2016 01 05 20 15 00 1.520412042737E-04 9.094947017729E-13 2.448000000000E+05
     1.268694824219E+03-2.772648811340E+00-9.313225746155E-10 0.000000000000E+00
     1.149719238281E+04 1.416706085205E+00-9.313225746155E-10 6.000000000000E+00
    -2.272834179688E+04 5.608158111572E-01 1.862645149231E-09 0.000000000000E+00
R23 2016 01 05 20 15 00-6.707105785608E-05-3.637978807092E-12 2.448000000000E+05
    -2.164174218750E+04-3.742437362671E-01-3.725290298462E-09 0.000000000000E+00
    -1.329887792969E+04-1.197433471680E-02-0.000000000000E+00 3.000000000000E+00
     2.309199707031E+03-3.570277214050E+00-1.862645149231E-09 0.000000000000E+00
R01 2016 01 05 20 15 00-1.470660790801E-04 0.000000000000E+00 2.448000000000E+05
    -1.662574511719E+04 2.381590843201E+00-0.000000000000E+00 0.000000000000E+00
    -1.994076660156E+03-1.127793312073E+00-0.000000000000E+00 1.000000000000E+00
     1.922956640625E+04 1.943032264709E+00-2.793967723846E-09 0.000000000000E+00
R24 2016 01 05 20 15 00-1.325411722064E-04-0.000000000000E+00 2.450400000000E+05
    -1.863020507812E+04-2.026335716248E+00-9.313225746155E-10 0.000000000000E+00
    -3.004704101562E+03-1.204355239868E+00-0.000000000000E+00 2.000000000000E+00
     1.714479736328E+04-2.409567832947E+00-2.793967723846E-09 0.000000000000E+00
R15 2016 01 05 20 15 00 6.098020821810E-05 9.094947017729E-13 2.464800000000E+05
     1.343026855469E+03 1.659040451050E-01 1.862645149231E-09 0.000000000000E+00
     2.461276708984E+04 9.396257400513E-01-0.000000000000E+00 0.000000000000E+00
     6.783381835938E+03-3.439012527466E+00 0.000000000000E+00 0.000000000000E+00
R03 2016 01 05 20 45 00 5.920231342316E-05 9.094947017729E-13 2.466000000000E+05
    -1.796509228516E+04-7.742109298706E-01-2.793967723846E-09 0.000000000000E+00
     1.647716699219E+04 7.028217315674E-01-1.862645149231E-09 5.000000000000E+00
    -7.530959472656E+03 3.368661880493E+00-0.000000000000E+00 0.000000000000E+00
R02 2016 01 05 20 45 00 1.700511202216E-04 1.818989403546E-12 2.466000000000E+05
    -2.168815820312E+04 1.229117393494E+00-1.862645149231E-09 0.000000000000E+00
     8.897193847656E+03-6.481647491455E-01-9.313225746155E-10-4.000000000000E+00
     1.012819335938E+04 3.206842422485E+00-2.793967723846E-09 0.000000000000E+00
R14 2016 01 05 20 45 00 2.649305388331E-04 4.547473508865E-12 2.466000000000E+05
    -5.225779296875E+03 6.056118011475E-02-9.313225746155E-10 0.000000000000E+00
     2.042830371094E+04-1.970434188843E+00-1.862645149231E-09-7.000000000000E+00
    -1.431735498047E+04-2.842500686646E+00 9.313225746155E-10 0.000000000000E+00
R13 2016 01 05 20 45 00 1.175235956907E-05-0.000000000000E+00 2.466000000000E+05
    -1.038710205078E+04-2.049617767334E-01-2.793967723846E-09 0.000000000000E+00
     3.331732910156E+03-3.151424407959E+00-9.313225746155E-10-2.000000000000E+00
    -2.306990820312E+04-3.630199432373E-01 9.313225746155E-10 0.000000000000E+00
R04 2016 01 05 20 45 00 1.520430669188E-04 9.094947017729E-13 2.466000000000E+05
    -3.353997070312E+03-2.327094078064E+00-9.313225746155E-10 0.000000000000E+00
     1.429607666016E+04 1.657883644104E+00-9.313225746155E-10 6.000000000000E+00
    -2.085291113281E+04 1.509433746338E+00 1.862645149231E-09 0.000000000000E+00
